[{"OBJECT_NAME":"IRIDIUM 113","OBJECT_ID":"2017-039A","EPOCH":"2026-03-09T21:21:34.497504","MEAN_MOTION":14.34222091,"ECCENTRICITY":0.00022411,"INCLINATION":86.4028,"RA_OF_ASC_NODE":3.6669,"ARG_OF_PERICENTER":81.1883,"MEAN_ANOMALY":278.9567,"EPHEMERIS_TYPE":0,"CLASSIFICATION_TYPE":"U","NORAD_CAT_ID":42803,"ELEMENT_SET_NO":999,"REV_AT_EPOCH":45695,"BSTAR":0.00014821747,"MEAN_MOTION_DOT":4.35e-6,"MEAN_MOTION_DDOT":0},{"OBJECT_NAME":"NOAA 16 DEB","OBJECT_ID":"2000-055TS","EPOCH":"2026-03-09T05:53:18.266784","MEAN_MOTION":14.33967107,"ECCENTRICITY":0.00129125,"INCLINATION":98.774,"RA_OF_ASC_NODE":173.3641,"ARG_OF_PERICENTER":218.0303,"MEAN_ANOMALY":141.997,"EPHEMERIS_TYPE":0,"CLASSIFICATION_TYPE":"U","NORAD_CAT_ID":42422,"ELEMENT_SET_NO":999,"REV_AT_EPOCH":51268,"BSTAR":0.0022084857,"MEAN_MOTION_DOT":6.126e-5,"MEAN_MOTION_DDOT":0}]
